NOAA 19                 
1 33591U 09005A   23030.28665431  .00000165  00000+0  11401-3 0  9999
2 33591  99.1213  73.8822 0012982 270.6766  89.2917 14.12677202720472
